SENTINEL-5P             
1 42969U 17064A   26189.84105616  .00000013  00000+0  27035-4 0  9999
2 42969  98.7928 131.8187 0001090  91.8263 268.3038 14.19522581452631
